GLOBALSTAR M067         
1 32263U 07048A   25103.82668345 -.00000089  00000+0  65379-4 0  9999
2 32263  51.9720 224.2558 0001257 173.6417 357.6210 12.40669925801494
GLOBALSTAR M070         
1 32264U 07048B   25103.93520060 -.00000052  00000+0  28772-3 0  9998
2 32264  51.9766 324.2424 0000775  72.6686  59.5146 12.62316196805558
GLOBALSTAR M066         
1 32265U 07048C   25104.25539082 -.00000050  00000+0  36318-3 0  9992
2 32265  51.9636 210.5745 0002535 111.7945 267.5670 12.35099133808349
GLOBALSTAR M068         
1 32266U 07048D   25104.53588058 -.00000032  00000+0  40048-3 0  9996
2 32266  51.9861 136.2869 0000833   5.6624 150.1025 12.62821065809805
GLOBALSTAR M079         
1 37188U 10054A   25104.14193117 -.00000073  00000+0  17177-3 0  9992
2 37188  52.0059 334.7509 0000964 102.2604  72.3014 12.62273048669042
GLOBALSTAR M074         
1 37189U 10054B   25104.53167832 -.00000068  00000+0  19684-3 0  9990
2 37189  52.0037 332.8985 0000616  90.6081 294.4980 12.62273968669094
GLOBALSTAR M076         
1 37190U 10054C   25104.11333920 -.00000072  00000+0  17592-3 0  9990
2 37190  52.0047 334.3337 0000723 110.1572  55.3889 12.62260852669042
GLOBALSTAR M077         
1 37191U 10054D   25103.94091613 -.00000099  00000+0  29385-4 0  9994
2 37191  52.0072 291.6992 0000817 101.5615  58.4786 12.62273230669032
